NORAD_CAT_ID,OBJECT_NAME,OBJECT_TYPE,EPOCH,MEAN_MOTION,ECCENTRICITY,INCLINATION,RA_OF_ASC_NODE,ARG_OF_PERICENTER,MEAN_ANOMALY,BSTAR,MEAN_MOTION_DOT,MEAN_MOTION_DDOT,TLE_LINE0,TLE_LINE1,TLE_LINE2,SEMIMAJOR_AXIS,PERIOD,APOGEE,PERIGEE,DECAYED
55782.0,STARLINK-5826,PAYLOAD,2024-06-21 13:27:41,14.98331551,0.0003051,70.0003,343.3322,269.7906,90.2903,4.2854e-05,4.18e-06,0.0,0 STARLINK-5826,1 55782U 23028AT  24173.56090242  .00000418  00000-0  42854-4 0  9997,2 55782  70.0003 343.3322 0003051 269.7906  90.2903 14.98331551 73235,6950.188,96.107,574.174,569.933,0.0
55782.0,STARLINK-5826,PAYLOAD,2024-06-21 21:28:22,14.98334074,0.0003043,70.0004,342.4906,269.8713,90.2098,6.6524e-05,7.01e-06,0.0,0 STARLINK-5826,1 55782U 23028AT  24173.89469969  .00000701  00000-0  66524-4 0  9994,2 55782  70.0004 342.4906 0003043 269.8713  90.2098 14.98334074 73285,6950.18,96.107,574.16,569.93,0.0
55782.0,STARLINK-5826,PAYLOAD,2024-06-22 13:29:43,14.98329544,0.0002962,70.0005,340.8072,270.4538,89.6282,1.2399e-05,5.5e-07,0.0,0 STARLINK-5826,1 55782U 23028AT  24174.56230385  .00000055  00000-0  12399-4 0  9990,2 55782  70.0005 340.8072 0002962 270.4538  89.6282 14.98329544 73388,6950.194,96.107,574.118,570.001,0.0
55782.0,STARLINK-5826,PAYLOAD,2024-06-22 19:54:15,14.98329554,0.0002919,70.0007,340.1347,269.2411,90.8414,1.6598e-05,1.05e-06,0.0,0 STARLINK-5826,1 55782U 23028AT  24174.82934369  .00000105  00000-0  16598-4 0  9993,2 55782  70.0007 340.1347 0002919 269.2411  90.8414 14.98329554 73423,6950.194,96.107,574.088,570.031,0.0
55782.0,STARLINK-5826,PAYLOAD,2024-06-22 21:30:23,14.98329751,0.000292,70.0007,339.9663,269.2921,90.7904,1.8065e-05,1.23e-06,0.0,0 STARLINK-5826,1 55782U 23028AT  24174.89610352  .00000123  00000-0  18065-4 0  9994,2 55782  70.0007 339.9663 0002920 269.2921  90.7904 14.98329751 73431,6950.194,96.107,574.088,570.029,0.0
55782.0,STARLINK-5826,PAYLOAD,2024-06-23 13:31:43,14.98331096,0.0002865,70.0008,338.2828,267.0983,92.9848,-5.48e-07,-1e-06,0.0,0 STARLINK-5826,1 55782U 23028AT  24175.56370250 -.00000100  00000-0 -54800-6 0  9995,2 55782  70.0008 338.2828 0002865 267.0983  92.9848 14.98331096 73536,6950.19,96.107,574.046,570.063,0.0
55782.0,STARLINK-5826,PAYLOAD,2024-06-23 19:56:16,14.98331801,0.0002846,70.0008,337.6095,266.8848,93.1986,9.5122e-06,2.1e-07,0.0,0 STARLINK-5826,1 55782U 23028AT  24175.83074154  .00000021  00000-0  95122-5 0  9990,2 55782  70.0008 337.6095 0002846 266.8848  93.1986 14.98331801 73575,6950.187,96.107,574.03,570.074,0.0
55782.0,STARLINK-5826,PAYLOAD,2024-06-23 21:32:24,14.98332692,0.0002848,70.0009,337.441,266.5351,93.5483,1.9124e-05,1.35e-06,0.0,0 STARLINK-5826,1 55782U 23028AT  24175.89750060  .00000135  00000-0  19124-4 0  9996,2 55782  70.0009 337.4410 0002848 266.5351  93.5483 14.98332692 73589,6950.185,96.107,574.029,570.07,0.0
55782.0,STARLINK-5826,PAYLOAD,2024-06-24 13:33:44,14.98331686,0.0002902,70.0008,335.7576,265.2852,94.7975,4.8778e-05,4.89e-06,0.0,0 STARLINK-5826,1 55782U 23028AT  24176.56509918  .00000489  00000-0  48778-4 0  9994,2 55782  70.0008 335.7576 0002902 265.2852  94.7975 14.98331686 73687,6950.188,96.107,574.07,570.036,0.0
55782.0,STARLINK-5826,PAYLOAD,2024-06-24 19:58:16,14.98332708,0.0002901,70.0008,335.0844,265.3014,94.7814,5.687e-05,5.86e-06,0.0,0 STARLINK-5826,1 55782U 23028AT  24176.83213799  .00000586  00000-0  56870-4 0  9993,2 55782  70.0008 335.0844 0002901 265.3014  94.7814 14.98332708 73721,6950.185,96.107,574.066,570.033,0.0
55782.0,STARLINK-5826,PAYLOAD,2024-06-25 13:35:45,14.98330483,0.0002877,70.0009,333.2331,264.5841,95.499,1.2112e-05,5.2e-07,0.0,0 STARLINK-5826,1 55782U 23028AT  24177.56649984  .00000052  00000-0  12112-4 0  9992,2 55782  70.0009 333.2331 0002877 264.5841  95.4990 14.98330483 73837,6950.191,96.107,574.056,570.057,0.0
55782.0,STARLINK-5826,PAYLOAD,2024-06-25 20:00:17,14.98331287,0.0002862,70.001,332.5601,264.2108,95.8725,2.1238e-05,1.6e-06,0.0,0 STARLINK-5826,1 55782U 23028AT  24177.83353889  .00000160  00000-0  21238-4 0  9997,2 55782  70.0010 332.5601 0002862 264.2108  95.8725 14.98331287 73875,6950.189,96.107,574.043,570.065,0.0
55782.0,STARLINK-5826,PAYLOAD,2024-06-26 12:01:38,14.98330338,0.0002978,70.0007,330.8757,270.9548,89.1269,-1.5096e-05,-2.73e-06,0.0,0 STARLINK-5826,1 55782U 23028AT  24178.50114027 -.00000273  00000-0 -15096-4 0  9993,2 55782  70.0007 330.8757 0002978 270.9548  89.1269 14.98330338 73970,6950.192,96.107,574.127,569.987,0.0
55782.0,STARLINK-5826,PAYLOAD,2024-06-27 12:03:39,14.98338521,0.0002634,70.001,328.3504,268.1285,91.9573,-0.0001354,-1.708e-05,0.0,0 STARLINK-5826,1 55782U 23028AT  24179.50253869 -.00001708  00000-0 -13540-3 0  9997,2 55782  70.0010 328.3504 0002634 268.1285  91.9573 14.98338521 74121,6950.167,96.106,573.862,570.201,0.0
55782.0,STARLINK-5826,PAYLOAD,2024-06-27 20:04:19,14.983287,0.0002943,70.0011,327.5096,273.2614,86.8209,1.3022e-05,6.2e-07,0.0,0 STARLINK-5826,1 55782U 23028AT  24179.83634062  .00000062  00000-0  13022-4 0  9997,2 55782  70.0011 327.5096 0002943 273.2614  86.8209 14.98328700 74177,6950.197,96.107,574.107,570.016,0.0
55782.0,STARLINK-5826,PAYLOAD,2024-06-28 13:41:48,14.98331779,0.0002958,70.001,325.6581,273.2676,86.8145,6.4695e-05,6.79e-06,0.0,0 STARLINK-5826,1 55782U 23028AT  24180.57069760  .00000679  00000-0  64695-4 0  9993,2 55782  70.0010 325.6581 0002958 273.2676  86.8145 14.98331779 74289,6950.187,96.107,574.108,569.997,0.0
55782.0,STARLINK-5826,PAYLOAD,2024-06-28 20:06:19,14.98340043,0.0003148,70.0011,324.9845,274.2371,85.8428,0.00017887,2.042e-05,0.0,0 STARLINK-5826,1 55782U 23028AT  24180.83772818  .00002042  00000-0  17887-3 0  9993,2 55782  70.0011 324.9845 0003148 274.2371  85.8428 14.98340043 74322,6950.162,96.106,574.215,569.839,0.0
55782.0,STARLINK-5826,PAYLOAD,2024-06-29 02:30:52,14.98329812,0.0003196,70.0019,324.3122,269.5116,90.5677,0.0001402,1.58e-05,0.0,0 STARLINK-5826,1 55782U 23028AT  24181.10477209  .00001580  00000-0  14020-3 0  9992,2 55782  70.0019 324.3122 0003196 269.5116  90.5677 14.98329812 74363,6950.193,96.107,574.28,569.837,0.0
55782.0,STARLINK-5826,PAYLOAD,2024-06-29 15:19:57,14.98324922,0.0002792,70.0021,322.9658,271.8745,88.2094,6.9092e-05,7.31e-06,0.0,0 STARLINK-5826,1 55782U 23028AT  24181.63885981  .00000731  00000-0  69092-4 0  9997,2 55782  70.0021 322.9658 0002792 271.8745  88.2094 14.98324922 74442,6950.209,96.107,574.014,570.133,0.0
55782.0,STARLINK-5826,PAYLOAD,2024-06-29 18:32:13,14.98324029,0.0002725,70.0019,322.6292,267.337,92.7477,5.7875e-05,5.98e-06,0.0,0 STARLINK-5826,1 55782U 23028AT  24181.77238087  .00000598  00000-0  57875-4 0  9998,2 55782  70.0019 322.6292 0002725 267.3370  92.7477 14.98324029 74465,6950.211,96.107,573.97,570.182,0.0
55782.0,STARLINK-5826,PAYLOAD,2024-06-30 10:33:34,14.98331156,0.0002926,70.0009,320.9463,261.9959,98.0868,-9.7682e-05,-1.258e-05,0.0,0 STARLINK-5826,1 55782U 23028AT  24182.43998012 -.00001258  00000-0 -97682-4 0  9999,2 55782  70.0009 320.9463 0002926 261.9959  98.0868 14.98331156 74564,6950.189,96.107,574.088,570.021,0.0
55782.0,STARLINK-5826,PAYLOAD,2024-06-30 18:34:14,14.98332797,0.0002777,70.001,320.1031,263.9534,96.1309,-3.1551e-05,-4.69e-06,0.0,0 STARLINK-5826,1 55782U 23028AT  24182.77377674 -.00000469  00000-0 -31551-4 0  9997,2 55782  70.0010 320.1031 0002777 263.9534  96.1309 14.98332797 74611,6950.184,96.107,573.979,570.119,0.0
55782.0,STARLINK-5826,PAYLOAD,2024-07-01 15:23:59,14.98327147,0.0003175,70.0003,317.9147,268.2095,91.8701,3.8923e-05,3.71e-06,0.0,0 STARLINK-5826,1 55782U 23028AT  24183.64165779  .00000371  00000-0  38923-4 0  9995,2 55782  70.0003 317.9147 0003175 268.2095  91.8701 14.98327147 74743,6950.202,96.107,574.273,569.86,0.0
55782.0,STARLINK-5826,PAYLOAD,2024-07-01 18:36:14,14.98331918,0.0003096,70.0006,317.5786,268.929,91.1514,9.5353e-05,1.045e-05,0.0,0 STARLINK-5826,1 55782U 23028AT  24183.77517360  .00001045  00000-0  95353-4 0  9995,2 55782  70.0006 317.5786 0003096 268.9290  91.1514 14.98331918 74765,6950.187,96.107,574.204,569.9,0.0
55782.0,STARLINK-5826,PAYLOAD,2024-07-02 02:36:55,14.98327906,0.0002963,70.001,316.7358,268.1694,91.9125,-2.7113e-05,-4.16e-06,0.0,0 STARLINK-5826,1 55782U 23028AT  24184.10897945 -.00000416  00000-0 -27113-4 0  9995,2 55782  70.0010 316.7358 0002963 268.1694  91.9125 14.98327906 74812,6950.199,96.107,574.124,570.005,0.0
55782.0,STARLINK-5826,PAYLOAD,2024-07-02 13:49:52,14.98319128,0.0003114,70.0009,315.5577,267.1135,92.9667,8.4382e-05,9.14e-06,0.0,0 STARLINK-5826,1 55782U 23028AT  24184.57630366  .00000914  00000-0  84382-4 0  9990,2 55782  70.0009 315.5577 0003114 267.1135  92.9667 14.98319128 74884,6950.227,96.108,574.256,569.927,0.0
55782.0,STARLINK-5826,PAYLOAD,2024-07-02 18:38:16,14.98328637,0.0002954,70.0009,315.053,266.791,93.2911,4.5332e-05,4.48e-06,0.0,0 STARLINK-5826,1 55782U 23028AT  24184.77657905  .00000448  00000-0  45332-4 0  9994,2 55782  70.0009 315.0530 0002954 266.7910  93.2911 14.98328637 74910,6950.197,96.107,574.115,570.009,0.0
55782.0,STARLINK-5826,PAYLOAD,2024-07-03 02:38:56,14.98328873,0.000289,70.0009,314.2112,270.2415,89.8413,-6.7995e-06,-1.74e-06,0.0,0 STARLINK-5826,1 55782U 23028AT  24185.11038074 -.00000174  00000-0 -67995-5 0  9991,2 55782  70.0009 314.2112 0002890 270.2415  89.8413 14.98328873 74961,6950.196,96.107,574.07,570.053,0.0
55782.0,STARLINK-5826,PAYLOAD,2024-07-03 18:40:17,14.98329433,0.0003082,70.0008,312.5286,272.2091,87.8715,0.00012414,1.388e-05,0.0,0 STARLINK-5826,1 55782U 23028AT  24185.77797705  .00001388  00000-0  12414-3 0  9996,2 55782  70.0008 312.5286 0003082 272.2091  87.8715 14.98329433 75067,6950.195,96.107,574.202,569.918,0.0
55782.0,STARLINK-5826,PAYLOAD,2024-07-04 12:17:44,14.98346296,0.0003486,69.999,310.6733,274.483,85.5931,0.00023903,2.761e-05,0.0,0 STARLINK-5826,1 55782U 23028AT  24186.51231652  .00002761  00000-0  23903-3 0  9994,2 55782  69.9990 310.6733 0003486 274.4830  85.5931 14.98346296 75176,6950.142,96.106,574.43,569.585,0.0
